GUOWANG GROUP 20 OBJECT*
1 68132U 26047D   26092.57516225 -.00000084  00000+0  51916-4 0  9999
2 68132  50.0067 333.7806 0000710 245.0360 115.0463 13.86594040  2909
GUOWANG GROUP 20 OBJECT*
1 68133U 26047E   26093.00475373 -.00000089  00000+0  48671-4 0  9996
2 68133  50.0078 332.0369 0000826  23.1230 336.9704 13.85521979  2976
GUOWANG GROUP 20 OBJECT*
1 68134U 26047F   26092.56694514 -.00000033  00000+0  95092-4 0  9995
2 68134  50.0093 333.7419 0000629 256.4099 103.6728 13.87190720  2909
GUOWANG GROUP 20 OBJECT*
1 68135U 26047G   26093.93995620  .00000030  00000+0  15438-3 0  9991
2 68135  50.0089 328.3860 0005205 347.4651  12.6115 13.84351793  3103
GUOWANG GROUP 20 OBJECT*
1 68136U 26047H   26092.49226754 -.00000088  00000+0  48251-4 0  9991
2 68136  50.0086 334.0113 0000909 305.9014  54.1799 13.87381469  2894
GUOWANG GROUP 20 OBJECT*
1 68137U 26047J   26092.70556402 -.00000116  00000+0  24623-4 0  9991
2 68137  50.0058 333.1317 0000669 182.6269 177.4625 13.87066479  2938
CZ-8A R/B               
1 68138U 26047K   26094.30240664  .00000085  00000+0  12801-3 0  9998
2 68138  49.9533 324.7658 0044763 226.2116 133.5085 14.12233379  3171
SHIYAN-30 03            
1 68139U 26048A   26094.13839878  .00005011  00000+0  49028-3 0  9997
2 68139  35.0014 351.5577 0002483  61.9613 298.1343 14.91775399  3309
SHIYAN-30 04            
1 68140U 26048B   26094.13909322  .00004821  00000+0  47178-3 0  9993
2 68140  34.9929 351.5554 0000953  68.0880 291.9926 14.91773124  3305
CZ-2D R/B               
1 68141U 26048C   26094.15133161  .00002950  00000+0  26275-3 0  9992
2 68141  35.1309 351.0996 0015798 189.9994 170.0402 14.95594512  3311
STARLINK-36604          
1 68142U 26049A   26094.19102145  .00295256  00000+0  19009-2 0  9995
2 68142  97.2844 114.7098 0001574  89.6069 270.5376 15.75333702  3438
STARLINK-36995          
1 68143U 26049B   26094.25002315 -.00066104  00000+0 -44554-3 0  9995
2 68143  97.2848 114.7831 0001227  93.4871 267.0638 15.75200960  4732
STARLINK-37020          
1 68144U 26049C   26094.25002315  .00052929  00000+0  35394-3 0  9996
2 68144  97.2850 114.8068 0001332  78.5965 335.9153 15.75163425  4735
STARLINK-36244          
1 68145U 26049D   26094.20018880  .00228253  00000+0  14827-2 0  9998
2 68145  97.2844 114.6965 0001348 110.2165 249.9245 15.75314207  3434
STARLINK-36980          
1 68146U 26049E   26094.23662573  .00312152  00000+0  15603-2 0  9991
2 68146  97.2854 114.8011 0001223  95.8387 264.3021 15.80990176  3441
STARLINK-37055          
1 68147U 26049F   26094.23812616  .00226517  00000+0  11448-2 0  9999
2 68147  97.2857 114.7990 0000701  79.8177 280.3170 15.80969705  3446
